CCSDS_OMM_VERS = 2.0
CREATION_DATE  = 
ORIGINATOR     = 

OBJECT_NAME    = STARLINK-36147
OBJECT_ID      = 2025-288AE
CENTER_NAME    = EARTH
REF_FRAME      = TEME
TIME_SYSTEM    = UTC
MEAN_ELEMENT_THEORY = SGP/SGP4

EPOCH          = 2026-01-04T09:56:08.182176
MEAN_MOTION    = 15.50593119
ECCENTRICITY   = .00011746
INCLINATION    = 43.0006
RA_OF_ASC_NODE = 31.0892
ARG_OF_PERICENTER = 254.6597
MEAN_ANOMALY   = 105.4134

EPHEMERIS_TYPE = 0
CLASSIFICATION_TYPE = U
NORAD_CAT_ID   = 66987
ELEMENT_SET_NO = 999
REV_AT_EPOCH   = 540
BSTAR          = .12741351E-2
MEAN_MOTION_DOT = .75164E-3
MEAN_MOTION_DDOT = 0

CCSDS_OMM_VERS = 2.0
CREATION_DATE  = 
ORIGINATOR     = 

OBJECT_NAME    = YAOGAN-47
OBJECT_ID      = 2025-289A
CENTER_NAME    = EARTH
REF_FRAME      = TEME
TIME_SYSTEM    = UTC
MEAN_ELEMENT_THEORY = SGP/SGP4

EPOCH          = 2025-12-28T04:16:32.643840
MEAN_MOTION    = 15.23366104
ECCENTRICITY   = .00008556
INCLINATION    = 97.5253
RA_OF_ASC_NODE = 67.3364
ARG_OF_PERICENTER = 117.9958
MEAN_ANOMALY   = 242.1365

EPHEMERIS_TYPE = 0
CLASSIFICATION_TYPE = U
NORAD_CAT_ID   = 66988
ELEMENT_SET_NO = 999
REV_AT_EPOCH   = 289
BSTAR          = .2072964E-3
MEAN_MOTION_DOT = .4855E-4
MEAN_MOTION_DDOT = 0

CCSDS_OMM_VERS = 2.0
CREATION_DATE  = 
ORIGINATOR     = 

OBJECT_NAME    = CZ-4B R/B
OBJECT_ID      = 2025-289B
CENTER_NAME    = EARTH
REF_FRAME      = TEME
TIME_SYSTEM    = UTC
MEAN_ELEMENT_THEORY = SGP/SGP4

EPOCH          = 2026-01-04T18:44:06.901152
MEAN_MOTION    = 15.73658485
ECCENTRICITY   = .0130818
INCLINATION    = 97.5202
RA_OF_ASC_NODE = 76.8756
ARG_OF_PERICENTER = 275.4434
MEAN_ANOMALY   = 83.1919

EPHEMERIS_TYPE = 0
CLASSIFICATION_TYPE = U
NORAD_CAT_ID   = 66989
ELEMENT_SET_NO = 999
REV_AT_EPOCH   = 418
BSTAR          = .5931E-3
MEAN_MOTION_DOT = .142329E-2
MEAN_MOTION_DDOT = .83899E-5

CCSDS_OMM_VERS = 2.0
CREATION_DATE  = 
ORIGINATOR     = 

OBJECT_NAME    = TJS-22
OBJECT_ID      = 2025-290A
CENTER_NAME    = EARTH
REF_FRAME      = TEME
TIME_SYSTEM    = UTC
MEAN_ELEMENT_THEORY = SGP/SGP4

EPOCH          = 2026-01-04T07:41:43.448928
MEAN_MOTION    = 1.00271210
ECCENTRICITY   = .0003288
INCLINATION    = 1.9322
RA_OF_ASC_NODE = 285.0568
ARG_OF_PERICENTER = 347.8257
MEAN_ANOMALY   = 12.9321

EPHEMERIS_TYPE = 0
CLASSIFICATION_TYPE = U
NORAD_CAT_ID   = 66990
ELEMENT_SET_NO = 999
REV_AT_EPOCH   = 38
BSTAR          = 0
MEAN_MOTION_DOT = -.4E-7
MEAN_MOTION_DDOT = 0

CCSDS_OMM_VERS = 2.0
CREATION_DATE  = 
ORIGINATOR     = 

OBJECT_NAME    = CZ-3B R/B
OBJECT_ID      = 2025-290B
CENTER_NAME    = EARTH
REF_FRAME      = TEME
TIME_SYSTEM    = UTC
MEAN_ELEMENT_THEORY = SGP/SGP4

EPOCH          = 2025-12-15T17:23:33.043200
MEAN_MOTION    = 2.38388611
ECCENTRICITY   = .7240884
INCLINATION    = 28.4636
RA_OF_ASC_NODE = 300.4666
ARG_OF_PERICENTER = 182.7002
MEAN_ANOMALY   = 168.6250

EPHEMERIS_TYPE = 0
CLASSIFICATION_TYPE = U
NORAD_CAT_ID   = 66991
ELEMENT_SET_NO = 999
REV_AT_EPOCH   = 16
BSTAR          = .75879E-3
MEAN_MOTION_DOT = .57911E-3
MEAN_MOTION_DDOT = -.20514E-6

CCSDS_OMM_VERS = 2.0
CREATION_DATE  = 
ORIGINATOR     = 

OBJECT_NAME    = 2025-292A
OBJECT_ID      = 2025-292A
CENTER_NAME    = EARTH
REF_FRAME      = TEME
TIME_SYSTEM    = UTC
MEAN_ELEMENT_THEORY = SGP/SGP4

EPOCH          = 2026-01-04T19:37:18.837696
MEAN_MOTION    = 15.04746264
ECCENTRICITY   = .0015255
INCLINATION    = 97.6502
RA_OF_ASC_NODE = 82.1424
ARG_OF_PERICENTER = 190.4544
MEAN_ANOMALY   = 169.6367

EPHEMERIS_TYPE = 0
CLASSIFICATION_TYPE = U
NORAD_CAT_ID   = 66993
ELEMENT_SET_NO = 999
REV_AT_EPOCH   = 386
BSTAR          = .4894E-3
MEAN_MOTION_DOT = .6855E-4
MEAN_MOTION_DDOT = 0

CCSDS_OMM_VERS = 2.0
CREATION_DATE  = 
ORIGINATOR     = 

OBJECT_NAME    = 2025-292B
OBJECT_ID      = 2025-292B
CENTER_NAME    = EARTH
REF_FRAME      = TEME
TIME_SYSTEM    = UTC
MEAN_ELEMENT_THEORY = SGP/SGP4

EPOCH          = 2026-01-04T19:36:04.924224
MEAN_MOTION    = 15.04815392
ECCENTRICITY   = .0015043
INCLINATION    = 97.6513
RA_OF_ASC_NODE = 82.1464
ARG_OF_PERICENTER = 190.7736
MEAN_ANOMALY   = 169.3170

EPHEMERIS_TYPE = 0
CLASSIFICATION_TYPE = U
NORAD_CAT_ID   = 66994
ELEMENT_SET_NO = 999
REV_AT_EPOCH   = 386
BSTAR          = .52636E-3
MEAN_MOTION_DOT = .7391E-4
MEAN_MOTION_DDOT = 0

CCSDS_OMM_VERS = 2.0
CREATION_DATE  = 
ORIGINATOR     = 

OBJECT_NAME    = 2025-292C
OBJECT_ID      = 2025-292C
CENTER_NAME    = EARTH
REF_FRAME      = TEME
TIME_SYSTEM    = UTC
MEAN_ELEMENT_THEORY = SGP/SGP4

EPOCH          = 2026-01-04T19:36:46.558656
MEAN_MOTION    = 15.04730556
ECCENTRICITY   = .0015232
INCLINATION    = 97.6503
RA_OF_ASC_NODE = 82.1429
ARG_OF_PERICENTER = 188.9990
MEAN_ANOMALY   = 171.0966

EPHEMERIS_TYPE = 0
CLASSIFICATION_TYPE = U
NORAD_CAT_ID   = 66995
ELEMENT_SET_NO = 999
REV_AT_EPOCH   = 386
BSTAR          = .57806E-3
MEAN_MOTION_DOT = .8106E-4
MEAN_MOTION_DDOT = 0

CCSDS_OMM_VERS = 2.0
CREATION_DATE  = 
ORIGINATOR     = 

OBJECT_NAME    = 2025-292D
OBJECT_ID      = 2025-292D
CENTER_NAME    = EARTH
REF_FRAME      = TEME
TIME_SYSTEM    = UTC
MEAN_ELEMENT_THEORY = SGP/SGP4

EPOCH          = 2026-01-04T19:35:23.223264
MEAN_MOTION    = 15.04785322
ECCENTRICITY   = .0014397
INCLINATION    = 97.6499
RA_OF_ASC_NODE = 82.1425
ARG_OF_PERICENTER = 192.6608
MEAN_ANOMALY   = 167.4258

EPHEMERIS_TYPE = 0
CLASSIFICATION_TYPE = U
NORAD_CAT_ID   = 66996
ELEMENT_SET_NO = 999
REV_AT_EPOCH   = 386
BSTAR          = .42375E-3
MEAN_MOTION_DOT = .5931E-4
MEAN_MOTION_DDOT = 0

CCSDS_OMM_VERS = 2.0
CREATION_DATE  = 
ORIGINATOR     = 

OBJECT_NAME    = 2025-292E
OBJECT_ID      = 2025-292E
CENTER_NAME    = EARTH
REF_FRAME      = TEME
TIME_SYSTEM    = UTC
MEAN_ELEMENT_THEORY = SGP/SGP4

EPOCH          = 2026-01-04T19:32:48.715008
MEAN_MOTION    = 15.04930246
ECCENTRICITY   = .0014742
INCLINATION    = 97.6520
RA_OF_ASC_NODE = 82.1517
ARG_OF_PERICENTER = 193.9376
MEAN_ANOMALY   = 166.1445

EPHEMERIS_TYPE = 0
CLASSIFICATION_TYPE = U
NORAD_CAT_ID   = 66997
ELEMENT_SET_NO = 999
REV_AT_EPOCH   = 385
BSTAR          = .46984E-3
MEAN_MOTION_DOT = .661E-4
MEAN_MOTION_DDOT = 0

CCSDS_OMM_VERS = 2.0
CREATION_DATE  = 
ORIGINATOR     = 

OBJECT_NAME    = 2025-292F
OBJECT_ID      = 2025-292F
CENTER_NAME    = EARTH
REF_FRAME      = TEME
TIME_SYSTEM    = UTC
MEAN_ELEMENT_THEORY = SGP/SGP4

EPOCH          = 2026-01-04T19:28:24.029472
MEAN_MOTION    = 15.05154839
ECCENTRICITY   = .0015843
INCLINATION    = 97.6541
RA_OF_ASC_NODE = 82.1621
ARG_OF_PERICENTER = 194.4167
MEAN_ANOMALY   = 165.6610

EPHEMERIS_TYPE = 0
CLASSIFICATION_TYPE = U
NORAD_CAT_ID   = 66998
ELEMENT_SET_NO = 999
REV_AT_EPOCH   = 386
BSTAR          = .55773E-3
MEAN_MOTION_DOT = .791E-4
MEAN_MOTION_DDOT = 0

CCSDS_OMM_VERS = 2.0
CREATION_DATE  = 
ORIGINATOR     = 

OBJECT_NAME    = 2025-292G
OBJECT_ID      = 2025-292G
CENTER_NAME    = EARTH
REF_FRAME      = TEME
TIME_SYSTEM    = UTC
MEAN_ELEMENT_THEORY = SGP/SGP4

EPOCH          = 2026-01-04T19:26:49.771392
MEAN_MOTION    = 15.05219890
ECCENTRICITY   = .0015316
INCLINATION    = 97.6550
RA_OF_ASC_NODE = 82.1665
ARG_OF_PERICENTER = 196.0779
MEAN_ANOMALY   = 163.9964

EPHEMERIS_TYPE = 0
CLASSIFICATION_TYPE = U
NORAD_CAT_ID   = 66999
ELEMENT_SET_NO = 999
REV_AT_EPOCH   = 386
BSTAR          = .55471E-3
MEAN_MOTION_DOT = .7879E-4
MEAN_MOTION_DDOT = 0

