STARLINK-36147          
1 66987U 25288AE  26004.41398359  .00075164  00000+0  12741-2 0  9994
2 66987  43.0006  31.0892 0001174 254.6597 105.4134 15.50593119  5401
YAOGAN-47               
1 66988U 25289A   25362.17815560  .00004855  00000+0  20730-3 0  9990
2 66988  97.5253  67.3364 0000855 117.9958 242.1365 15.23366104  2890
CZ-4B R/B               
1 66989U 25289B   26004.78063543  .00142329  83899-5  59310-3 0  9996
2 66989  97.5202  76.8756 0130818 275.4434  83.1919 15.73658485  4180
TJS-22                  
1 66990U 25290A   26004.32064177 -.00000004  00000+0  00000+0 0  9993
2 66990   1.9322 285.0568 0003288 347.8257  12.9321  1.00271210   383
CZ-3B R/B               
1 66991U 25290B   25349.72468800  .00057911 -20514-6  75879-3 0  9998
2 66991  28.4636 300.4666 7240884 182.7002 168.6250  2.38388611   165
2025-292A               
1 66993U 25292A   26004.81757914  .00006855  00000+0  48940-3 0  9998
2 66993  97.6502  82.1424 0015255 190.4544 169.6367 15.04746264  3864
2025-292B               
1 66994U 25292B   26004.81672366  .00007391  00000+0  52636-3 0  9999
2 66994  97.6513  82.1464 0015043 190.7736 169.3170 15.04815392  3860
2025-292C               
1 66995U 25292C   26004.81720554  .00008106  00000+0  57806-3 0  9992
2 66995  97.6503  82.1429 0015232 188.9990 171.0966 15.04730556  3863
2025-292D               
1 66996U 25292D   26004.81624101  .00005931  00000+0  42375-3 0  9992
2 66996  97.6499  82.1425 0014397 192.6608 167.4258 15.04785322  3867
2025-292E               
1 66997U 25292E   26004.81445272  .00006610  00000+0  46984-3 0  9998
2 66997  97.6520  82.1517 0014742 193.9376 166.1445 15.04930246  3855
2025-292F               
1 66998U 25292F   26004.81138923  .00007910  00000+0  55773-3 0  9991
2 66998  97.6541  82.1621 0015843 194.4167 165.6610 15.05154839  3868
2025-292G               
1 66999U 25292G   26004.81029828  .00007879  00000+0  55471-3 0  9994
2 66999  97.6550  82.1665 0015316 196.0779 163.9964 15.05219890  3861
